NORAD_CAT_ID,OBJECT_NAME,OBJECT_TYPE,EPOCH,MEAN_MOTION,ECCENTRICITY,INCLINATION,RA_OF_ASC_NODE,ARG_OF_PERICENTER,MEAN_ANOMALY,BSTAR,MEAN_MOTION_DOT,MEAN_MOTION_DDOT,TLE_LINE0,TLE_LINE1,TLE_LINE2,SEMIMAJOR_AXIS,PERIOD,APOGEE,PERIGEE,DECAYED
53707.0,STARLINK-4667,PAYLOAD,2024-05-09 20:38:38,15.08847312,0.0001111,53.2159,351.6279,75.582,284.5295,0.00048242,7.4e-05,0.0,0 STARLINK-4667,1 53707U 22107H   24130.86016752  .00007400  00000-0  48242-3 0  9993,2 53707  53.2159 351.6279 0001111  75.5820 284.5295 15.08847312 93346,6917.858,95.437,540.492,538.954,0.0
53707.0,STARLINK-4667,PAYLOAD,2024-05-09 22:14:01,15.08851178,0.0001111,53.2162,351.3306,75.2264,284.8851,0.00066341,0.00010289,0.0,0 STARLINK-4667,1 53707U 22107H   24130.92640695  .00010289  00000-0  66341-3 0  9998,2 53707  53.2162 351.3306 0001111  75.2264 284.8851 15.08851178 94108,6917.846,95.437,540.48,538.943,0.0
53707.0,STARLINK-4667,PAYLOAD,2024-05-10 14:07:52,15.08865456,0.00022,53.2159,348.3565,82.0329,278.0913,0.0012852,0.0002024,0.0,0 STARLINK-4667,1 53707U 22107H   24131.58880487  .00020240  00000-0  12852-2 0  9991,2 53707  53.2159 348.3565 0002200  82.0329 278.0913 15.08865456 94204,6917.803,95.436,541.189,538.146,0.0
53707.0,STARLINK-4667,PAYLOAD,2024-05-10 20:29:25,15.08861911,9.37e-05,53.2156,347.1677,91.3518,268.7582,0.0029351,0.00046762,0.0,0 STARLINK-4667,1 53707U 22107H   24131.85376826  .00046762  00000-0  29351-2 0  9997,2 53707  53.2156 347.1677 0000937  91.3518 268.7582 15.08861911 93490,6917.813,95.436,540.327,539.03,0.0
53707.0,STARLINK-4667,PAYLOAD,2024-05-10 22:04:48,15.08858807,9.47e-05,53.2164,346.8714,92.0394,268.0707,0.0028493,0.00045374,0.0,0 STARLINK-4667,1 53707U 22107H   24131.92000814  .00045374  00000-0  28493-2 0  9990,2 53707  53.2164 346.8714 0000947  92.0394 268.0707 15.08858807 94255,6917.823,95.436,540.343,539.033,0.0
53707.0,STARLINK-4667,PAYLOAD,2024-05-10 23:40:11,15.088545,9.48e-05,53.2161,346.5735,88.4425,271.6676,0.0025773,0.00040985,0.0,0 STARLINK-4667,1 53707U 22107H   24131.98624850  .00040985  00000-0  25773-2 0  9999,2 53707  53.2161 346.5735 0000948  88.4425 271.6676 15.08854500 93516,6917.836,95.437,540.357,539.045,0.0
53707.0,STARLINK-4667,PAYLOAD,2024-05-11 20:20:11,15.08868373,0.0001499,53.2173,342.7082,85.338,274.7783,0.0015874,0.00025085,0.0,0 STARLINK-4667,1 53707U 22107H   24132.84735331  .00025085  00000-0  15874-2 0  9997,2 53707  53.2173 342.7082 0001499  85.3380 274.7783 15.08868373 93640,6917.794,95.436,540.696,538.622,0.0
53707.0,STARLINK-4667,PAYLOAD,2024-05-11 23:30:57,15.0883701,0.0001355,53.2165,342.1121,92.7968,267.3179,0.0013829,0.00021788,0.0,0 STARLINK-4667,1 53707U 22107H   24132.97983593  .00021788  00000-0  13829-2 0  9990,2 53707  53.2165 342.1121 0001355  92.7968 267.3179 15.08837010 93667,6917.89,95.438,540.692,538.817,0.0
53707.0,STARLINK-4667,PAYLOAD,2024-05-12 07:27:53,15.0884114,0.0001329,53.2162,340.6238,92.9602,267.1542,0.00081976,0.00012783,0.0,0 STARLINK-4667,1 53707U 22107H   24133.31103691  .00012783  00000-0  81976-3 0  9996,2 53707  53.2162 340.6238 0001329  92.9602 267.1542 15.08841140 93711,6917.877,95.437,540.661,538.823,0.0
53707.0,STARLINK-4667,PAYLOAD,2024-05-12 20:10:59,15.08811667,0.000145,53.2172,338.2453,86.8591,273.2567,0.00037119,5.62e-05,0.0,0 STARLINK-4667,1 53707U 22107H   24133.84096940  .00005620  00000-0  37119-3 0  9994,2 53707  53.2172 338.2453 0001450  86.8591 273.2567 15.08811667 93792,6917.967,95.439,540.835,538.829,0.0
53707.0,STARLINK-4667,PAYLOAD,2024-05-13 20:01:47,15.08837954,0.0001447,53.217,333.7858,81.652,278.4636,0.0010468,0.0001641,0.0,0 STARLINK-4667,1 53707U 22107H   24134.83458162  .00016410  00000-0  10468-2 0  9998,2 53707  53.2170 333.7858 0001447  81.6520 278.4636 15.08837954 94691,6917.887,95.438,540.753,538.751,0.0
53707.0,STARLINK-4667,PAYLOAD,2024-05-13 23:12:34,15.08842441,0.0001438,53.2171,333.1916,79.4475,280.6679,0.0010657,0.00016714,0.0,0 STARLINK-4667,1 53707U 22107H   24134.96706157  .00016714  00000-0  10657-2 0  9999,2 53707  53.2171 333.1916 0001438  79.4475 280.6679 15.08842441 93963,6917.873,95.437,540.733,538.743,0.0
53707.0,STARLINK-4667,PAYLOAD,2024-05-14 13:31:02,15.08855641,0.0001437,53.217,330.5149,81.071,279.0445,0.00087452,0.00013663,0.0,0 STARLINK-4667,1 53707U 22107H   24135.56321837  .00013663  00000-0  87452-3 0  9992,2 53707  53.2170 330.5149 0001437  81.0710 279.0445 15.08855641 94804,6917.833,95.437,540.692,538.703,0.0
53707.0,STARLINK-4667,PAYLOAD,2024-05-14 19:52:34,15.08868972,0.000141,53.217,329.3255,80.4231,279.692,0.0011013,0.00017296,0.0,0 STARLINK-4667,1 53707U 22107H   24135.82817330  .00017296  00000-0  11013-2 0  9994,2 53707  53.2170 329.3255 0001410  80.4231 279.6920 15.08868972 94849,6917.792,95.436,540.632,538.681,0.0
53707.0,STARLINK-4667,PAYLOAD,2024-05-15 05:24:51,15.08892282,0.000146,53.2175,327.541,82.201,277.9148,0.0013748,0.00021691,0.0,0 STARLINK-4667,1 53707U 22107H   24136.22560025  .00021691  00000-0  13748-2 0  9996,2 53707  53.2175 327.5410 0001460  82.2010 277.9148 15.08892282 94155,6917.721,95.434,540.596,538.576,0.0
53707.0,STARLINK-4667,PAYLOAD,2024-05-15 13:21:48,15.08843356,0.0001973,53.2173,326.0546,88.506,271.6158,-0.00050577,-8.329e-05,0.0,0 STARLINK-4667,1 53707U 22107H   24136.55680581 -.00008329  00000-0 -50577-3 0  9999,2 53707  53.2173 326.0546 0001973  88.5060 271.6158 15.08843356 94206,6917.87,95.437,541.1,538.37,0.0
53707.0,STARLINK-4667,PAYLOAD,2024-05-15 18:07:57,15.08829038,0.0001386,53.2181,325.1632,97.6564,262.4586,0.00098131,0.00015359,0.0,0 STARLINK-4667,1 53707U 22107H   24136.75552892  .00015359  00000-0  98131-3 0  9991,2 53707  53.2181 325.1632 0001386  97.6564 262.4586 15.08829038 94988,6917.914,95.438,540.738,538.82,0.0
53707.0,STARLINK-4667,PAYLOAD,2024-05-16 05:15:39,15.08861191,0.0001139,53.2175,323.082,81.3751,278.737,0.0024016,0.00038163,0.0,0 STARLINK-4667,1 53707U 22107H   24137.21920802  .00038163  00000-0  24016-2 0  9991,2 53707  53.2175 323.0820 0001139  81.3751 278.7370 15.08861191 94304,6917.816,95.436,540.469,538.893,0.0
53707.0,STARLINK-4667,PAYLOAD,2024-05-16 21:09:30,15.08852655,4.98e-05,53.2179,320.1067,75.6481,284.4567,0.0019842,0.00031443,0.0,0 STARLINK-4667,1 53707U 22107H   24137.88160722  .00031443  00000-0  19842-2 0  9996,2 53707  53.2179 320.1067 0000498  75.6481 284.4567 15.08852655 95153,6917.842,95.437,540.051,539.362,0.0
53707.0,STARLINK-4667,PAYLOAD,2024-05-16 22:44:54,15.08858774,0.0001623,53.2172,319.8096,75.5107,284.6065,0.0020133,0.00031916,0.0,0 STARLINK-4667,1 53707U 22107H   24137.94785067  .00031916  00000-0  20133-2 0  9998,2 53707  53.2172 319.8096 0001623  75.5107 284.6065 15.08858774 94419,6917.823,95.436,540.811,538.565,0.0
53707.0,STARLINK-4667,PAYLOAD,2024-05-17 11:27:59,15.08847054,0.0002081,53.2162,317.4322,103.77,256.3524,0.0023314,0.00037019,0.0,0 STARLINK-4667,1 53707U 22107H   24138.47777069  .00037019  00000-0  23314-2 0  9994,2 53707  53.2162 317.4322 0002081 103.7700 256.3524 15.08847054 94499,6917.859,95.437,541.163,538.284,0.0
53707.0,STARLINK-4667,PAYLOAD,2024-05-17 21:00:18,15.08839287,0.0001772,53.2183,315.6434,206.6208,153.4694,0.0014434,0.00022758,0.0,0 STARLINK-4667,1 53707U 22107H   24138.87521075  .00022758  00000-0  14434-2 0  9999,2 53707  53.2183 315.6434 0001772 206.6208 153.4694 15.08839287 94559,6917.883,95.438,540.973,538.522,0.0
53707.0,STARLINK-4667,PAYLOAD,2024-05-18 04:57:14,15.08843067,0.0001134,53.2172,314.159,95.5551,264.557,0.0018806,0.00029771,0.0,0 STARLINK-4667,1 53707U 22107H   24139.20642099  .00029771  00000-0  18806-2 0  9996,2 53707  53.2172 314.1590 0001134  95.5551 264.5570 15.08843067 94606,6917.871,95.437,540.521,538.952,0.0
53707.0,STARLINK-4667,PAYLOAD,2024-05-18 20:51:05,15.08875454,0.0001587,53.216,311.1832,95.0949,265.0225,0.0016751,0.00026498,0.0,0 STARLINK-4667,1 53707U 22107H   24139.86881498  .00026498  00000-0  16751-2 0  9996,2 53707  53.2160 311.1832 0001587  95.0949 265.0225 15.08875454 95459,6917.772,95.435,540.735,538.539,0.0
53707.0,STARLINK-4667,PAYLOAD,2024-05-19 04:48:00,15.08880549,0.0001433,53.2163,309.6959,114.5797,245.5345,0.000777,0.00012113,0.0,0 STARLINK-4667,1 53707U 22107H   24140.20000561  .00012113  00000-0  77700-3 0  9991,2 53707  53.2163 309.6959 0001433 114.5797 245.5345 15.08880549 94751,6917.756,95.435,540.613,538.63,0.0
53707.0,STARLINK-4667,PAYLOAD,2024-05-19 20:41:53,15.08813183,0.0001744,53.2173,306.7237,117.0094,243.1077,0.001502,0.0002368,0.0,0 STARLINK-4667,1 53707U 22107H   24140.86242438  .00023680  00000-0  15020-2 0  9991,2 53707  53.2173 306.7237 0001744 117.0094 243.1077 15.08813183 94859,6917.962,95.439,541.034,538.621,0.0
53707.0,STARLINK-4667,PAYLOAD,2024-05-20 11:00:22,15.08845159,0.0001707,53.2169,304.0468,117.6151,242.5015,0.0017098,0.00027032,0.0,0 STARLINK-4667,1 53707U 22107H   24141.45858825  .00027032  00000-0  17098-2 0  9992,2 53707  53.2169 304.0468 0001707 117.6151 242.5015 15.08845159 95696,6917.865,95.437,540.91,538.549,0.0
53707.0,STARLINK-4667,PAYLOAD,2024-05-21 14:01:54,15.08859789,0.0001463,53.2169,298.991,97.4357,262.6802,0.00052642,8.104e-05,0.0,0 STARLINK-4667,1 53707U 22107H   24142.58465869  .00008104  00000-0  52642-3 0  9993,2 53707  53.2169 298.9910 0001463  97.4357 262.6802 15.08859789 95861,6917.82,95.436,540.697,538.673,0.0
53707.0,STARLINK-4667,PAYLOAD,2024-05-21 17:12:40,15.08859516,0.0001452,53.218,298.3996,109.5937,250.5212,0.00041411,6.312e-05,0.0,0 STARLINK-4667,1 53707U 22107H   24142.71713694  .00006312  00000-0  41411-3 0  9991,2 53707  53.2180 298.3996 0001452 109.5937 250.5212 15.08859516 95138,6917.821,95.436,540.69,538.681,0.0
53707.0,STARLINK-4667,PAYLOAD,2024-05-22 20:14:14,15.0883817,0.0001502,53.2182,293.3418,118.8117,241.3026,0.00022854,3.351e-05,0.0,0 STARLINK-4667,1 53707U 22107H   24143.84322107  .00003351  00000-0  22854-3 0  9991,2 53707  53.2182 293.3418 0001502 118.8117 241.3026 15.08838170 95306,6917.886,95.438,540.79,538.712,0.0
